NORAD_CAT_ID,OBJECT_NAME,OBJECT_TYPE,EPOCH,MEAN_MOTION,ECCENTRICITY,INCLINATION,RA_OF_ASC_NODE,ARG_OF_PERICENTER,MEAN_ANOMALY,BSTAR,MEAN_MOTION_DOT,MEAN_MOTION_DDOT,TLE_LINE0,TLE_LINE1,TLE_LINE2,SEMIMAJOR_AXIS,PERIOD,APOGEE,PERIGEE,DECAYED
53600.0,STARLINK-4677,PAYLOAD,2023-10-06 08:36:22,15.08853382,0.0001534,53.2156,258.2602,111.9196,248.1959,0.00032647,4.913e-05,0.0,0 STARLINK-4677,1 53600U 22104N   23279.35859349  .00004913  00000-0  32647-3 0  9994,2 53600  53.2156 258.2602 0001534 111.9196 248.1959 15.08853382 61686,6917.839,95.437,540.766,538.643,0.0
53600.0,STARLINK-4677,PAYLOAD,2023-10-07 02:05:37,15.08838742,0.0001744,53.2153,254.9907,107.3377,252.7806,9.0148e-05,1.147e-05,0.0,0 STARLINK-4677,1 53600U 22104N   23280.08724191  .00001147  00000-0  90148-4 0  9999,2 53600  53.2153 254.9907 0001744 107.3377 252.7806 15.08838742 61794,6917.884,95.438,540.956,538.543,0.0
53600.0,STARLINK-4677,PAYLOAD,2023-10-07 06:51:46,15.08843647,0.0001605,53.2164,254.0987,93.2428,266.8748,9.5261e-05,1.229e-05,0.0,0 STARLINK-4677,1 53600U 22104N   23280.28595983  .00001229  00000-0  95261-4 0  9998,2 53600  53.2164 254.0987 0001605  93.2428 266.8748 15.08843647 62108,6917.869,95.437,540.845,538.624,0.0
53600.0,STARLINK-4677,PAYLOAD,2023-10-07 14:48:42,15.08839423,0.0001656,53.2164,252.6127,87.4017,272.7164,7.3957e-06,-1.7e-06,0.0,0 STARLINK-4677,1 53600U 22104N   23280.61716226 -.00000170  00000-0  73957-5 0  9994,2 53600  53.2164 252.6127 0001656  87.4017 272.7164 15.08839423 62153,6917.882,95.438,540.893,538.602,0.0
53600.0,STARLINK-4677,PAYLOAD,2023-10-08 06:42:33,15.08853578,0.000162,53.2168,249.6423,102.6712,257.4461,0.00015104,2.117e-05,0.0,0 STARLINK-4677,1 53600U 22104N   23281.27955421  .00002117  00000-0  15104-3 0  9999,2 53600  53.2168 249.6423 0001620 102.6712 257.4461 15.08853578 61971,6917.839,95.437,540.825,538.583,0.0
53600.0,STARLINK-4677,PAYLOAD,2023-10-08 14:39:29,15.08844599,0.0001571,53.2159,248.1509,88.1636,271.9536,0.00012612,1.72e-05,0.0,0 STARLINK-4677,1 53600U 22104N   23281.61075666  .00001720  00000-0  12612-3 0  9991,2 53600  53.2159 248.1509 0001571  88.1636 271.9536 15.08844599 62022,6917.866,95.437,540.818,538.645,0.0
53600.0,STARLINK-4677,PAYLOAD,2023-10-09 08:08:43,15.08851546,0.0001409,53.2158,244.8822,81.4242,278.691,0.00022795,3.343e-05,0.0,0 STARLINK-4677,1 53600U 22104N   23282.33939418  .00003343  00000-0  22795-3 0  9991,2 53600  53.2158 244.8822 0001409  81.4242 278.6910 15.08851546 62414,6917.845,95.437,540.685,538.735,0.0
53600.0,STARLINK-4677,PAYLOAD,2023-10-10 01:37:58,15.08836727,0.0001418,53.2151,241.608,87.8095,272.306,2.4571e-05,1.03e-06,0.0,0 STARLINK-4677,1 53600U 22104N   23283.06804254  .00000103  00000-0  24571-4 0  9997,2 53600  53.2151 241.6080 0001418  87.8095 272.3060 15.08836727 62246,6917.89,95.438,540.736,538.774,0.0
53600.0,STARLINK-4677,PAYLOAD,2023-10-10 06:24:07,15.08853826,0.0001348,53.2153,240.7184,102.8045,257.3098,0.00019114,2.756e-05,0.0,0 STARLINK-4677,1 53600U 22104N   23283.26675427  .00002756  00000-0  19114-3 0  9999,2 53600  53.2153 240.7184 0001348 102.8045 257.3098 15.08853826 62274,6917.838,95.437,540.636,538.771,0.0
53600.0,STARLINK-4677,PAYLOAD,2023-10-10 14:21:03,15.08840454,0.0001986,53.2154,239.2318,86.3387,273.7832,-1.9569e-05,-6e-06,0.0,0 STARLINK-4677,1 53600U 22104N   23283.59796158 -.00000600  00000-0 -19569-4 0  9993,2 53600  53.2154 239.2318 0001986  86.3387 273.7832 15.08840454 62327,6917.879,95.438,541.118,538.37,0.0
53600.0,STARLINK-4677,PAYLOAD,2023-10-11 03:04:09,15.08831145,0.0001357,53.2155,236.8531,100.791,259.3235,-0.00013388,-2.417e-05,0.0,0 STARLINK-4677,1 53600U 22104N   23284.12788683 -.00002417  00000-0 -13388-3 0  9997,2 53600  53.2155 236.8531 0001357 100.7910 259.3235 15.08831145 62406,6917.907,95.438,540.711,538.834,0.0
53600.0,STARLINK-4677,PAYLOAD,2023-10-11 06:14:55,15.08838858,0.0001191,53.2155,236.2582,95.5541,264.5587,6.3674e-06,-1.87e-06,0.0,0 STARLINK-4677,1 53600U 22104N   23284.26036420 -.00000187  00000-0  63674-5 0  9993,2 53600  53.2155 236.2582 0001191  95.5541 264.5587 15.08838858 62702,6917.884,95.438,540.573,538.925,0.0
53600.0,STARLINK-4677,PAYLOAD,2023-10-12 02:54:56,15.0884782,0.0001244,53.2146,232.3905,107.3847,252.7282,0.00016086,2.274e-05,0.0,0 STARLINK-4677,1 53600U 22104N   23285.12148560  .00002274  00000-0  16086-3 0  9999,2 53600  53.2146 232.3905 0001244 107.3847 252.7282 15.08847820 62551,6917.856,95.437,540.582,538.861,0.0
53600.0,STARLINK-4677,PAYLOAD,2023-10-12 14:02:38,15.08839721,0.0001604,53.2167,230.3103,89.4125,270.7051,4.9399e-05,4.98e-06,0.0,0 STARLINK-4677,1 53600U 22104N   23285.58517184  .00000498  00000-0  49399-4 0  9991,2 53600  53.2167 230.3103 0001604  89.4125 270.7051 15.08839721 62905,6917.881,95.438,540.856,538.637,0.0
53600.0,STARLINK-4677,PAYLOAD,2023-10-13 05:56:29,15.08849281,0.0001426,53.2156,227.335,94.4147,265.7008,0.00030027,4.495e-05,0.0,0 STARLINK-4677,1 53600U 22104N   23286.24756837  .00004495  00000-0  30027-3 0  9993,2 53600  53.2156 227.3350 0001426  94.4147 265.7008 15.08849281 63005,6917.852,95.437,540.704,538.731,0.0
53600.0,STARLINK-4677,PAYLOAD,2023-10-14 05:47:16,15.08862892,0.0001559,53.216,222.8723,99.6097,260.5071,0.00043726,6.682e-05,0.0,0 STARLINK-4677,1 53600U 22104N   23287.24115895  .00006682  00000-0  43726-3 0  9997,2 53600  53.2160 222.8723 0001559  99.6097 260.5071 15.08862892 63154,6917.81,95.436,540.754,538.597,0.0
53600.0,STARLINK-4677,PAYLOAD,2023-10-14 20:05:45,15.0883139,0.0001993,53.2164,220.1954,109.9485,250.1722,-0.0002121,-3.661e-05,0.0,0 STARLINK-4677,1 53600U 22104N   23287.83733044 -.00003661  00000-0 -21210-3 0  9994,2 53600  53.2164 220.1954 0001993 109.9485 250.1722 15.08831390 62968,6917.907,95.438,541.15,538.393,0.0
53600.0,STARLINK-4677,PAYLOAD,2023-10-15 11:59:37,15.08831787,0.0001429,53.2168,217.2264,92.7031,267.4125,-4.6903e-05,-1.034e-05,0.0,0 STARLINK-4677,1 53600U 22104N   23288.49973586 -.00001034  00000-0 -46903-4 0  9993,2 53600  53.2168 217.2264 0001429  92.7031 267.4125 15.08831787 63344,6917.905,95.438,540.759,538.782,0.0
53600.0,STARLINK-4677,PAYLOAD,2023-10-15 18:21:09,15.0883504,0.0001289,53.2159,216.036,92.5243,267.5897,0.00010818,1.434e-05,0.0,0 STARLINK-4677,1 53600U 22104N   23288.76469692  .00001434  00000-0  10818-3 0  9998,2 53600  53.2159 216.0360 0001289  92.5243 267.5897 15.08835040 63382,6917.896,95.438,540.652,538.869,0.0
53600.0,STARLINK-4677,PAYLOAD,2023-10-16 02:18:05,15.08856579,0.000134,53.216,214.5515,84.0143,276.1002,0.0010226,0.00016031,0.0,0 STARLINK-4677,1 53600U 22104N   23289.09589436  .00016031  00000-0  10226-2 0  9995,2 53600  53.2160 214.5515 0001340  84.0143 276.1002 15.08856579 63151,6917.83,95.437,540.622,538.768,0.0
53600.0,STARLINK-4677,PAYLOAD,2023-10-16 11:50:23,15.08857692,0.0001467,53.2161,212.7662,76.5365,283.579,0.00052311,8.051e-05,0.0,0 STARLINK-4677,1 53600U 22104N   23289.49333165  .00008051  00000-0  52311-3 0  9990,2 53600  53.2161 212.7662 0001467  76.5365 283.5790 15.08857692 63217,6917.826,95.436,540.706,538.676,0.0
53600.0,STARLINK-4677,PAYLOAD,2023-10-16 18:11:56,15.08848726,0.0001872,53.2156,211.5779,72.9014,287.2183,0.00032187,4.839e-05,0.0,0 STARLINK-4677,1 53600U 22104N   23289.75829491  .00004839  00000-0  32187-3 0  9990,2 53600  53.2156 211.5779 0001872  72.9014 287.2183 15.08848726 63257,6917.854,95.437,541.014,538.424,0.0
53600.0,STARLINK-4677,PAYLOAD,2023-10-17 11:41:11,15.08843143,0.0001834,53.2145,208.3062,78.664,281.4558,0.00049416,7.586e-05,0.0,0 STARLINK-4677,1 53600U 22104N   23290.48693533  .00007586  00000-0  49416-3 0  9993,2 53600  53.2145 208.3062 0001834  78.6640 281.4558 15.08843143 63362,6917.871,95.437,541.005,538.467,0.0
53600.0,STARLINK-4677,PAYLOAD,2023-10-18 01:59:39,15.08846842,0.0001588,53.2148,205.6306,79.7794,280.3378,0.00044358,6.78e-05,0.0,0 STARLINK-4677,1 53600U 22104N   23291.08309388  .00006780  00000-0  44358-3 0  9997,2 53600  53.2148 205.6306 0001588  79.7794 280.3378 15.08846842 63732,6917.859,95.437,540.823,538.626,0.0
53600.0,STARLINK-4677,PAYLOAD,2023-10-18 11:31:58,15.08841228,0.0001893,53.2147,203.8451,79.482,280.6385,0.00021565,3.146e-05,0.0,0 STARLINK-4677,1 53600U 22104N   23291.48053663  .00003146  00000-0  21565-3 0  9991,2 53600  53.2147 203.8451 0001893  79.4820 280.6385 15.08841228 63518,6917.877,95.437,541.051,538.432,0.0
53600.0,STARLINK-4677,PAYLOAD,2023-10-19 01:50:26,15.08847546,0.0001572,53.2143,201.1695,75.7258,284.3908,0.00040633,6.186e-05,0.0,0 STARLINK-4677,1 53600U 22104N   23292.07669435  .00006186  00000-0  40633-3 0  9991,2 53600  53.2143 201.1695 0001572  75.7258 284.3908 15.08847546 63884,6917.857,95.437,540.81,538.635,0.0
53600.0,STARLINK-4677,PAYLOAD,2023-10-19 17:44:17,15.08852708,0.0001602,53.2142,198.1965,74.1391,285.9777,0.00048751,7.482e-05,0.0,0 STARLINK-4677,1 53600U 22104N   23292.73909199  .00007482  00000-0  48751-3 0  9997,2 53600  53.2142 198.1965 0001602  74.1391 285.9777 15.08852708 63701,6917.842,95.437,540.815,538.598,0.0
53600.0,STARLINK-4677,PAYLOAD,2023-10-19 22:30:26,15.08857852,0.0001657,53.2144,197.3055,72.5094,287.6079,0.00057959,8.953e-05,0.0,0 STARLINK-4677,1 53600U 22104N   23292.93780955  .00008953  00000-0  57959-3 0  9990,2 53600  53.2144 197.3055 0001657  72.5094 287.6079 15.08857852 64010,6917.826,95.436,540.837,538.545,0.0
53600.0,STARLINK-4677,PAYLOAD,2023-10-20 03:16:35,15.08872748,0.0001406,53.2144,196.4108,92.1096,268.0057,0.00094388,0.00014779,0.0,0 STARLINK-4677,1 53600U 22104N   23293.13652318  .00014779  00000-0  94388-3 0  9994,2 53600  53.2144 196.4108 0001406  92.1096 268.0057 15.08872748 63762,6917.78,95.435,540.618,538.673,0.0
53600.0,STARLINK-4677,PAYLOAD,2023-10-20 22:21:14,15.08823308,7.16e-05,53.2144,192.8453,107.9205,252.1865,-0.00022982,-3.942e-05,0.0,0 STARLINK-4677,1 53600U 22104N   23293.93141520 -.00003942  00000-0 -22982-3 0  9993,2 53600  53.2144 192.8453 0000716 107.9205 252.1865 15.08823308 64169,6917.931,95.439,540.292,539.301,0.0
